OBJECT_NAME,OBJECT_ID,EPOCH,MEAN_MOTION,ECCENTRICITY,INCLINATION,RA_OF_ASC_NODE,ARG_OF_PERICENTER,MEAN_ANOMALY,EPHEMERIS_TYPE,CLASSIFICATION_TYPE,NORAD_CAT_ID,ELEMENT_SET_NO,REV_AT_EPOCH,BSTAR,MEAN_MOTION_DOT,MEAN_MOTION_DDOT
STARLINK-3697,2022-025G,2026-06-04T16:36:33.103584,15.31699951,.0001225,53.1601,339.5966,101.2911,258.8228,0,U,51962,999,23434,.17018E-4,.163E-5,0
STARLINK-3675,2022-025H,2026-06-03T15:50:16.450368,15.31694918,.00010765,53.1610,333.6696,85.9434,274.1691,0,U,51963,999,23434,-.1477782E-5,-.411E-5,0
STARLINK-3690,2022-025J,2026-06-05T04:48:05.772384,15.31706229,.0001061,53.1608,337.2246,117.5228,242.5882,0,U,51964,999,23442,-.72512E-5,-.59E-5,0
STARLINK-3696,2022-025K,2026-06-04T17:54:49.103424,15.31700479,.0001444,53.1608,352.2784,82.3936,277.7229,0,U,51965,999,23416,.61178E-5,-.175E-5,0
STARLINK-3699,2022-025L,2026-06-04T17:41:20.579136,15.31699184,.0001271,53.1606,352.0739,83.9236,276.1910,0,U,51966,999,23416,.81905E-6,-.34E-5,0
STARLINK-3681,2022-025N,2026-06-04T17:36:57.263904,15.31702687,.0001208,53.1612,339.3924,98.5160,261.5978,0,U,51968,999,23435,.21761E-4,.31E-5,0
STARLINK-3680,2022-025P,2026-06-05T00:12:55.909152,15.31710312,.0001346,53.1620,338.1487,122.1094,238.0038,0,U,51969,999,23438,-.13594E-4,-.787E-5,0
STARLINK-3677,2022-025Q,2026-06-04T21:14:45.129120,15.30199173,.0001138,53.1610,351.6985,88.4640,271.6491,0,U,51970,999,23418,.40824E-4,.85E-5,0
STARLINK-3669,2022-025R,2026-06-04T16:43:18.996096,15.31698941,.000129,53.1618,339.7694,88.2765,271.8384,0,U,51971,999,23434,.8491E-4,.227E-4,0
STARLINK-3671,2022-025S,2026-06-04T17:47:49.572672,15.29356480,.0001355,53.1575,352.3266,69.8844,290.2302,0,U,51972,999,23416,.14538E-4,.64E-6,0
STARLINK-3679,2022-025T,2026-06-04T17:27:54.846432,15.31697909,.0000901,53.1611,352.0953,104.1977,255.9124,0,U,51973,999,23416,-.32947E-5,-.467E-5,0
STARLINK-3672,2022-025U,2026-06-04T17:34:40.267200,15.31701153,.0001281,53.1602,352.3062,72.0637,288.0504,0,U,51974,999,23415,.13208E-4,.45E-6,0
STARLINK-3674,2022-025V,2026-06-04T17:43:34.462848,15.31703072,.000114,53.1615,338.9001,89.7544,270.3588,0,U,51975,999,23436,-.27019E-5,-.449E-5,0
STARLINK-3660,2022-025X,2026-06-05T02:54:26.597088,15.08966515,.0001174,53.1892,346.6061,34.3852,325.7216,0,U,51977,999,23453,.10971E-2,.17276E-3,0
STARLINK-3649,2022-025AA,2026-06-02T20:26:17.528064,15.08833153,.00012949,53.1857,16.7931,66.9998,293.1130,0,U,51980,999,23391,.95597485E-4,.1234E-4,0
STARLINK-3635,2022-025AB,2026-06-02T19:12:05.239296,15.08836480,.00011967,53.1874,17.0246,79.7763,280.3364,0,U,51981,999,23390,.29719337E-4,.185E-5,0
STARLINK-3655,2022-025AD,2026-06-02T19:06:47.261376,15.08835283,.00010808,53.1887,17.0492,93.1623,266.9492,0,U,51983,999,23390,.38378623E-4,.323E-5,0
STARLINK-3664,2022-025AE,2026-06-04T18:07:21.314784,15.08830349,.0001337,53.1672,8.2724,58.3383,301.7738,0,U,51984,999,23420,.12929E-4,-.82E-6,0
STARLINK-3651,2022-025AF,2026-06-02T18:57:34.151040,15.08834780,.0001469,53.1876,17.0817,79.5332,280.5825,0,U,51985,999,23390,.83719E-4,.1044E-4,0
STARLINK-3645,2022-025AG,2026-06-04T03:05:04.194528,15.08835633,.00012488,53.1897,10.9057,88.7133,271.4002,0,U,51986,999,23411,.15356746E-4,-.44E-6,0
STARLINK-3644,2022-025AH,2026-06-04T18:05:51.166752,15.08933458,.0001135,53.1854,8.2470,51.4257,308.6836,0,U,51987,999,23420,.86668E-3,.13567E-3,0
STARLINK-3640,2022-025AJ,2026-06-04T17:39:27.728640,15.08837208,.0000957,53.1889,8.3306,94.4688,265.6413,0,U,51988,999,23420,.44815E-4,.425E-5,0
STARLINK-3642,2022-025AK,2026-06-04T18:00:42.812928,15.08790175,.0002058,53.1867,8.2805,126.7323,233.3858,0,U,51989,999,23420,-.42149E-3,-.6981E-4,0
STARLINK-3657,2022-025AL,2026-06-04T17:15:38.513664,15.08823381,.0001928,53.1812,348.4033,116.8472,243.2717,0,U,51990,999,23447,.29471E-3,.4403E-4,0
STARLINK-3652,2022-025AM,2026-06-04T17:50:03.499584,15.08837367,.0001741,53.1867,8.3118,139.1424,220.9699,0,U,51991,999,23420,-.5084E-4,-.1097E-4,0
STARLINK-3643,2022-025AN,2026-06-02T18:53:30.651648,15.08851219,.000194,53.1867,357.0810,121.4421,238.6760,0,U,51992,999,23375,.11883E-3,.1604E-4,0
STARLINK-3648,2022-025AP,2026-06-04T17:34:09.583968,15.08839033,.0001199,53.1882,8.3479,77.6219,282.4907,0,U,51993,999,23420,.55758E-4,.6E-5,0
STARLINK-3647,2022-025AQ,2026-06-02T18:48:14.292000,15.08835348,.0001334,53.1830,357.1042,88.2336,271.8809,0,U,51994,999,23376,-.13578E-4,-.504E-5,0
STARLINK-3636,2022-025AR,2026-06-04T17:10:21.907776,15.08801558,.0001883,53.1867,348.4212,112.6119,247.5072,0,U,51995,999,23404,-.34902E-3,-.5833E-4,0
STARLINK-3538,2022-025AS,2026-06-04T16:49:11.017344,15.08779756,.000292,53.1896,348.4896,126.4336,233.6925,0,U,51996,999,23405,-.48541E-3,-.7994E-4,0
