[ {"name": "STARLINK-3697", "line1": "1 51962U 22025G   26155.69204981  .00000163  00000+0  17018-4 0  9992", "line2": "2 51962  53.1601 339.5966 0001225 101.2911 258.8228 15.31699951234347"}, {"name": "STARLINK-3675", "line1": "1 51963U 22025H   26154.65991262 -.00000411  00000+0 -14778-5 0  9992", "line2": "2 51963  53.1610 333.6696 0001076  85.9434 274.1691 15.31694918234348"}, {"name": "STARLINK-3690", "line1": "1 51964U 22025J   26156.20006681 -.00000590  00000+0 -72512-5 0  9996", "line2": "2 51964  53.1608 337.2246 0001061 117.5228 242.5882 15.31706229234423"}, {"name": "STARLINK-3696", "line1": "1 51965U 22025K   26155.74640166 -.00000175  00000+0  61178-5 0  9991", "line2": "2 51965  53.1608 352.2784 0001444  82.3936 277.7229 15.31700479234165"}, {"name": "STARLINK-3699", "line1": "1 51966U 22025L   26155.73704374 -.00000340  00000+0  81905-6 0  9998", "line2": "2 51966  53.1606 352.0739 0001271  83.9236 276.1910 15.31699184234160"}, {"name": "STARLINK-3681", "line1": "1 51968U 22025N   26155.73399611  .00000310  00000+0  21761-4 0  9992", "line2": "2 51968  53.1612 339.3924 0001208  98.5160 261.5978 15.31702687234357"}, {"name": "STARLINK-3680", "line1": "1 51969U 22025P   26156.00898043 -.00000787  00000+0 -13594-4 0  9992", "line2": "2 51969  53.1620 338.1487 0001346 122.1094 238.0038 15.31710312234384"}, {"name": "STARLINK-3677", "line1": "1 51970U 22025Q   26155.88524455  .00000850  00000+0  40824-4 0  9997", "line2": "2 51970  53.1610 351.6985 0001138  88.4640 271.6491 15.30199173234187"}, {"name": "STARLINK-3669", "line1": "1 51971U 22025R   26155.69674764  .00002270  00000+0  84910-4 0  9998", "line2": "2 51971  53.1618 339.7694 0001290  88.2765 271.8384 15.31698941234344"}, {"name": "STARLINK-3671", "line1": "1 51972U 22025S   26155.74154598  .00000064  00000+0  14538-4 0  9991", "line2": "2 51972  53.1575 352.3266 0001355  69.8844 290.2302 15.29356480234169"}, {"name": "STARLINK-3679", "line1": "1 51973U 22025T   26155.72771813 -.00000467  00000+0 -32947-5 0  9999", "line2": "2 51973  53.1611 352.0953 0000901 104.1977 255.9124 15.31697909234164"}, {"name": "STARLINK-3672", "line1": "1 51974U 22025U   26155.73241050  .00000045  00000+0  13208-4 0  9994", "line2": "2 51974  53.1602 352.3062 0001281  72.0637 288.0504 15.31701153234152"}, {"name": "STARLINK-3674", "line1": "1 51975U 22025V   26155.73859332 -.00000449  00000+0 -27019-5 0  9999", "line2": "2 51975  53.1615 338.9001 0001140  89.7544 270.3588 15.31703072234367"}, {"name": "STARLINK-3660", "line1": "1 51977U 22025X   26156.12114117  .00017276  00000+0  10971-2 0  9990", "line2": "2 51977  53.1892 346.6061 0001174  34.3852 325.7216 15.08966515234532"}, {"name": "STARLINK-3649", "line1": "1 51980U 22025AA  26153.85159176  .00001234  00000+0  95597-4 0  9991", "line2": "2 51980  53.1857  16.7931 0001294  66.9998 293.1130 15.08833153233918"}, {"name": "STARLINK-3635", "line1": "1 51981U 22025AB  26153.80006064  .00000185  00000+0  29719-4 0  9991", "line2": "2 51981  53.1874  17.0246 0001196  79.7763 280.3364 15.08836480233906"}, {"name": "STARLINK-3655", "line1": "1 51983U 22025AD  26153.79638034  .00000323  00000+0  38379-4 0  9995", "line2": "2 51983  53.1887  17.0492 0001080  93.1623 266.9492 15.08835283233904"}, {"name": "STARLINK-3664", "line1": "1 51984U 22025AE  26155.75510781 -.00000082  00000+0  12929-4 0  9998", "line2": "2 51984  53.1672   8.2724 0001337  58.3383 301.7738 15.08830349234201"}, {"name": "STARLINK-3651", "line1": "1 51985U 22025AF  26153.78997860  .00001044  00000+0  83719-4 0  9990", "line2": "2 51985  53.1876  17.0817 0001469  79.5332 280.5825 15.08834780233904"}, {"name": "STARLINK-3645", "line1": "1 51986U 22025AG  26155.12852077 -.00000044  00000+0  15357-4 0  9994", "line2": "2 51986  53.1897  10.9057 0001248  88.7133 271.4002 15.08835633234110"}, {"name": "STARLINK-3644", "line1": "1 51987U 22025AH  26155.75406443  .00013567  00000+0  86668-3 0  9991", "line2": "2 51987  53.1854   8.2470 0001135  51.4257 308.6836 15.08933458234204"}, {"name": "STARLINK-3640", "line1": "1 51988U 22025AJ  26155.73573760  .00000425  00000+0  44815-4 0  9995", "line2": "2 51988  53.1889   8.3306 0000957  94.4688 265.6413 15.08837208234207"}, {"name": "STARLINK-3642", "line1": "1 51989U 22025AK  26155.75049552 -.00006981  00000+0 -42149-3 0  9997", "line2": "2 51989  53.1867   8.2805 0002058 126.7323 233.3858 15.08790175234202"}, {"name": "STARLINK-3657", "line1": "1 51990U 22025AL  26155.71919576  .00004403  00000+0  29471-3 0  9995", "line2": "2 51990  53.1812 348.4033 0001928 116.8472 243.2717 15.08823381234475"}, {"name": "STARLINK-3652", "line1": "1 51991U 22025AM  26155.74309606 -.00001097  00000+0 -50840-4 0  9999", "line2": "2 51991  53.1867   8.3118 0001741 139.1424 220.9699 15.08837367234201"}, {"name": "STARLINK-3643", "line1": "1 51992U 22025AN  26153.78716032  .00001604  00000+0  11883-3 0  9992", "line2": "2 51992  53.1867 357.0810 0001940 121.4421 238.6760 15.08851219233753"}, {"name": "STARLINK-3648", "line1": "1 51993U 22025AP  26155.73205537  .00000600  00000+0  55758-4 0  9998", "line2": "2 51993  53.1882   8.3479 0001199  77.6219 282.4907 15.08839033234202"}, {"name": "STARLINK-3647", "line1": "1 51994U 22025AQ  26153.78349875 -.00000504  00000+0 -13578-4 0  9995", "line2": "2 51994  53.1830 357.1042 0001334  88.2336 271.8809 15.08835348233764"}, {"name": "STARLINK-3636", "line1": "1 51995U 22025AR  26155.71553134 -.00005833  00000+0 -34902-3 0  9999", "line2": "2 51995  53.1867 348.4212 0001883 112.6119 247.5072 15.08801558234047"}, {"name": "STARLINK-3538", "line1": "1 51996U 22025AS  26155.70082196 -.00007994  00000+0 -48541-3 0  9998", "line2": "2 51996  53.1896 348.4896 0002920 126.4336 233.6925 15.08779756234053"}]